COSMOS 2251 DEB         
1 34429U 93036RW  17345.68580480  .00000852  00000-0  19111-3 0  9993
2 34429  74.0121  73.4425 0046918 224.4862 249.9661 14.57559448465419
